NORAD_CAT_ID,OBJECT_NAME,OBJECT_TYPE,EPOCH,MEAN_MOTION,ECCENTRICITY,INCLINATION,RA_OF_ASC_NODE,ARG_OF_PERICENTER,MEAN_ANOMALY,BSTAR,MEAN_MOTION_DOT,MEAN_MOTION_DDOT,TLE_LINE0,TLE_LINE1,TLE_LINE2,SEMIMAJOR_AXIS,PERIOD,APOGEE,PERIGEE,DECAYED
50180.0,STARLINK-3265,PAYLOAD,2024-05-16 22:33:02,15.08833832,0.0002983,53.2173,339.8402,82.2148,277.9182,-0.00018952,-3.303e-05,0.0,0 STARLINK-3265,1 50180U 21125AA  24137.93961441 -.00003303  00000-0 -18952-3 0  9998,2 50180  53.2173 339.8402 0002983  82.2148 277.9182 15.08833832136741,6917.899,95.438,541.828,537.701,0.0
50180.0,STARLINK-3265,PAYLOAD,2024-05-17 06:29:57,15.08858301,0.0001998,53.2174,338.3551,80.8319,279.2899,0.00041074,6.258e-05,0.0,0 STARLINK-3265,1 50180U 21125AA  24138.27080386  .00006258  00000-0  41074-3 0  9997,2 50180  53.2174 338.3551 0001998  80.8319 279.2899 15.08858301133666,6917.824,95.436,541.072,538.307,0.0
50180.0,STARLINK-3265,PAYLOAD,2024-05-17 22:23:49,15.08819615,0.0001474,53.2164,335.3829,81.4896,278.6263,-0.0002293,-3.933e-05,0.0,0 STARLINK-3265,1 50180U 21125AA  24138.93321637 -.00003933  00000-0 -22930-3 0  9996,2 50180  53.2164 335.3829 0001474  81.4896 278.6263 15.08819615136897,6917.943,95.439,540.827,538.788,0.0
50180.0,STARLINK-3265,PAYLOAD,2024-05-18 12:42:18,15.08843891,0.0001945,53.211,332.7062,92.029,268.0924,0.00045008,6.883e-05,0.0,0 STARLINK-3265,1 50180U 21125AA  24139.52937829  .00006883  00000-0  45008-3 0  9994,2 50180  53.2110 332.7062 0001945  92.0290 268.0924 15.08843891133850,6917.868,95.437,541.079,538.388,0.0
50180.0,STARLINK-3265,PAYLOAD,2024-05-18 19:03:50,15.08844056,0.0001427,53.2108,331.5164,98.519,261.5964,0.0003642,5.514e-05,0.0,0 STARLINK-3265,1 50180U 21125AA  24139.79433620  .00005514  00000-0  36420-3 0  9991,2 50180  53.2108 331.5164 0001427  98.5190 261.5964 15.08844056137021,6917.868,95.437,540.72,538.746,0.0
50180.0,STARLINK-3265,PAYLOAD,2024-05-19 12:33:04,15.08870035,0.0002145,53.217,328.2453,93.2569,266.8669,0.00066994,0.00010399,0.0,0 STARLINK-3265,1 50180U 21125AA  24140.52296522  .00010399  00000-0  66994-3 0  9998,2 50180  53.2170 328.2453 0002145  93.2569 266.8669 15.08870035137132,6917.789,95.436,541.137,538.17,0.0
50180.0,STARLINK-3265,PAYLOAD,2024-05-19 22:05:22,15.0885393,9.84e-05,53.2176,326.461,64.7122,295.3972,0.00075839,0.00011807,0.0,0 STARLINK-3265,1 50180U 21125AA  24140.92040036  .00011807  00000-0  75839-3 0  9992,2 50180  53.2176 326.4610 0000984  64.7122 295.3972 15.08853930134068,6917.838,95.437,540.384,539.022,0.0
50180.0,STARLINK-3265,PAYLOAD,2024-05-20 12:23:51,15.08841509,8.45e-05,53.2149,323.7857,71.7446,288.3638,0.00017649,2.522e-05,0.0,0 STARLINK-3265,1 50180U 21125AA  24141.51656420  .00002522  00000-0  17649-3 0  9997,2 50180  53.2149 323.7857 0000845  71.7446 288.3638 15.08841509134154,6917.876,95.437,540.325,539.156,0.0
50180.0,STARLINK-3265,PAYLOAD,2024-05-20 18:45:24,15.08818963,0.00011,53.2166,322.5968,75.9092,284.2022,0.00065632,0.00010167,0.0,0 STARLINK-3265,1 50180U 21125AA  24141.78153123  .00010167  00000-0  65632-3 0  9997,2 50180  53.2166 322.5968 0001100  75.9092 284.2022 15.08818963134195,6917.945,95.439,540.571,539.049,0.0
50180.0,STARLINK-3265,PAYLOAD,2024-05-20 21:56:10,15.08825044,0.0001078,53.2165,322.0011,80.7641,279.3473,0.00023355,3.43e-05,0.0,0 STARLINK-3265,1 50180U 21125AA  24141.91401187  .00003430  00000-0  23355-3 0  9999,2 50180  53.2165 322.0011 0001078  80.7641 279.3473 15.08825044137349,6917.926,95.439,540.537,539.045,0.0
50180.0,STARLINK-3265,PAYLOAD,2024-05-21 21:46:58,15.08836794,0.0001044,53.2175,317.5396,89.814,270.2972,0.00064999,0.00010071,0.0,0 STARLINK-3265,1 50180U 21125AA  24142.90762070  .00010071  00000-0  64999-3 0  9998,2 50180  53.2175 317.5396 0001044  89.8140 270.2972 15.08836794137496,6917.89,95.438,540.477,539.033,0.0
50180.0,STARLINK-3265,PAYLOAD,2024-05-22 12:05:26,15.08839934,0.0001097,53.2174,314.8628,105.2209,254.8904,0.00039436,5.994e-05,0.0,0 STARLINK-3265,1 50180U 21125AA  24143.50378188  .00005994  00000-0  39436-3 0  9994,2 50180  53.2174 314.8628 0001097 105.2209 254.8904 15.08839934137582,6917.881,95.438,540.504,538.987,0.0
50180.0,STARLINK-3265,PAYLOAD,2024-05-23 11:56:14,15.08833984,0.0001094,53.2179,310.403,113.7006,246.4101,6.0513e-05,6.75e-06,0.0,0 STARLINK-3265,1 50180U 21125AA  24144.49738622  .00000675  00000-0  60513-4 0  9998,2 50180  53.2179 310.4030 0001094 113.7006 246.4101 15.08833984134607,6917.899,95.438,540.521,539.007,0.0
50180.0,STARLINK-3265,PAYLOAD,2024-05-23 16:42:24,15.08818365,8.97e-05,53.2167,309.5099,82.5171,277.5923,-0.0002088,-3.607e-05,0.0,0 STARLINK-3265,1 50180U 21125AA  24144.69611490 -.00003607  00000-0 -20880-3 0  9995,2 50180  53.2167 309.5099 0000897  82.5171 277.5923 15.08818365134630,6917.947,95.439,540.432,539.191,0.0
50180.0,STARLINK-3265,PAYLOAD,2024-05-24 10:11:39,15.088332,0.0001184,53.2153,306.2433,35.3641,324.743,0.00017128,2.439e-05,0.0,0 STARLINK-3265,1 50180U 21125AA  24145.42475718  .00002439  00000-0  17128-3 0  9999,2 50180  53.2153 306.2433 0001184  35.3641 324.7430 15.08833200134744,6917.901,95.438,540.585,538.947,0.0
50180.0,STARLINK-3265,PAYLOAD,2024-05-24 14:57:47,15.08840919,0.0001137,53.2171,305.3562,19.9473,340.1563,0.00014481,2.018e-05,0.0,0 STARLINK-3265,1 50180U 21125AA  24145.62347148  .00002018  00000-0  14481-3 0  9998,2 50180  53.2171 305.3562 0001137  19.9473 340.1563 15.08840919137901,6917.878,95.437,540.529,538.956,0.0
50180.0,STARLINK-3265,PAYLOAD,2024-05-24 19:43:56,15.0886154,0.0001179,53.2163,304.4542,121.3356,238.7751,0.0006657,0.00010329,0.0,0 STARLINK-3265,1 50180U 21125AA  24145.82218360  .00010329  00000-0  66570-3 0  9993,2 50180  53.2163 304.4542 0001179 121.3356 238.7751 15.08861540134804,6917.815,95.436,540.495,538.864,0.0
50180.0,STARLINK-3265,PAYLOAD,2024-05-25 14:48:34,15.08847201,0.0001101,53.2158,300.8835,105.191,254.9204,0.00031897,4.793e-05,0.0,0 STARLINK-3265,1 50180U 21125AA  24146.61706773  .00004793  00000-0  31897-3 0  9993,2 50180  53.2158 300.8835 0001101 105.1910 254.9204 15.08847201138056,6917.858,95.437,540.485,538.962,0.0
50180.0,STARLINK-3265,PAYLOAD,2024-05-25 19:34:44,15.08835903,8.82e-05,53.2169,299.9943,68.1188,291.9898,3.3118e-05,2.39e-06,0.0,0 STARLINK-3265,1 50180U 21125AA  24146.81579147  .00000239  00000-0  33118-4 0  9998,2 50180  53.2169 299.9943 0000882  68.1188 291.9898 15.08835903134957,6917.893,95.438,540.368,539.148,0.0
50180.0,STARLINK-3265,PAYLOAD,2024-05-26 14:39:21,15.08843829,0.0001135,53.2174,296.4305,49.4325,310.6765,-3.186e-05,-7.95e-06,0.0,0 STARLINK-3265,1 50180U 21125AA  24147.61066770 -.00000795  00000-0 -31860-4 0  9991,2 50180  53.2174 296.4305 0001135  49.4325 310.6765 15.08843829138204,6917.869,95.437,540.519,538.949,0.0
50180.0,STARLINK-3265,PAYLOAD,2024-05-26 19:25:30,15.08850746,8.51e-05,53.2159,295.5359,62.1225,297.9853,0.00015207,2.134e-05,0.0,0 STARLINK-3265,1 50180U 21125AA  24147.80938439  .00002134  00000-0  15207-3 0  9995,2 50180  53.2159 295.5359 0000851  62.1225 297.9853 15.08850746135108,6917.848,95.437,540.301,539.124,0.0
50180.0,STARLINK-3265,PAYLOAD,2024-05-27 12:54:45,15.08845498,0.0001011,53.2162,292.2668,52.2436,307.8648,0.00028446,4.243e-05,0.0,0 STARLINK-3265,1 50180U 21125AA  24148.53802725  .00004243  00000-0  28446-3 0  9996,2 50180  53.2162 292.2668 0001011  52.2436 307.8648 15.08845498135215,6917.864,95.437,540.428,539.029,0.0
50180.0,STARLINK-3265,PAYLOAD,2024-05-27 14:30:08,15.08845777,9.39e-05,53.216,291.9693,54.1085,305.9994,0.00028006,4.173e-05,0.0,0 STARLINK-3265,1 50180U 21125AA  24148.60426686  .00004173  00000-0  28006-3 0  9996,2 50180  53.2160 291.9693 0000939  54.1085 305.9994 15.08845777138357,6917.863,95.437,540.377,539.078,0.0
50180.0,STARLINK-3265,PAYLOAD,2024-05-27 19:16:17,15.08847518,9.18e-05,53.2162,291.0771,55.4481,304.6598,0.00027676,4.12e-05,0.0,0 STARLINK-3265,1 50180U 21125AA  24148.80298571  .00004120  00000-0  27676-3 0  9992,2 50180  53.2162 291.0771 0000918  55.4481 304.6598 15.08847518138382,6917.857,95.437,540.357,539.087,0.0
50180.0,STARLINK-3265,PAYLOAD,2024-05-28 12:45:32,15.08841373,9.28e-05,53.2168,287.8029,82.7104,277.3993,2.1768e-05,5.9e-07,0.0,0 STARLINK-3265,1 50180U 21125AA  24149.53162618  .00000059  00000-0  21768-4 0  9999,2 50180  53.2168 287.8029 0000928  82.7104 277.3993 15.08841373135366,6917.876,95.437,540.383,539.099,0.0
50180.0,STARLINK-3265,PAYLOAD,2024-05-28 14:20:55,15.08840957,8.88e-05,53.2168,287.5054,87.3532,272.7562,7.2299e-06,-1.73e-06,0.0,0 STARLINK-3265,1 50180U 21125AA  24149.59786660 -.00000173  00000-0  72299-5 0  9998,2 50180  53.2168 287.5054 0000888  87.3532 272.7562 15.08840957138509,6917.877,95.437,540.357,539.128,0.0
50180.0,STARLINK-3265,PAYLOAD,2024-05-28 15:56:18,15.08840028,8.76e-05,53.217,287.2081,86.2511,273.8581,-1.4124e-05,-5.12e-06,0.0,0 STARLINK-3265,1 50180U 21125AA  24149.66410684 -.00000512  00000-0 -14124-4 0  9996,2 50180  53.2170 287.2081 0000876  86.2511 273.8581 15.08840028138514,6917.88,95.438,540.351,539.139,0.0
50180.0,STARLINK-3265,PAYLOAD,2024-05-29 12:36:19,15.08836937,8.78e-05,53.2175,283.342,73.4712,286.6376,4.8059e-05,4.77e-06,0.0,0 STARLINK-3265,1 50180U 21125AA  24150.52523098  .00000477  00000-0  48059-4 0  9999,2 50180  53.2175 283.3420 0000878  73.4712 286.6376 15.08836937135511,6917.89,95.438,540.362,539.147,0.0
50180.0,STARLINK-3265,PAYLOAD,2024-05-29 14:11:43,15.08837155,9.04e-05,53.2173,283.0448,68.6619,291.447,4.4375e-05,4.19e-06,0.0,0 STARLINK-3265,1 50180U 21125AA  24150.59147088  .00000419  00000-0  44375-4 0  9990,2 50180  53.2173 283.0448 0000904  68.6619 291.4470 15.08837155138658,6917.889,95.438,540.379,539.129,0.0
50180.0,STARLINK-3265,PAYLOAD,2024-05-29 15:47:06,15.0883778,9.06e-05,53.2175,282.7475,73.1187,286.9904,4.6617e-05,4.54e-06,0.0,0 STARLINK-3265,1 50180U 21125AA  24150.65771020  .00000454  00000-0  46617-4 0  9996,2 50180  53.2175 282.7475 0000906  73.1187 286.9904 15.08837780138665,6917.887,95.438,540.379,539.125,0.0
